APRIZESAT 2             
1 28366U 04025A   22277.05906841  .00000224  00000+0  84489-4 0  9993
2 28366  98.1482 140.5676 0107788   9.1764 351.1360 14.36848480957417
SAUDICOMSAT 1           
1 28369U 04025D   22276.63164059  .00000545  00000+0  14316-3 0  9993
2 28369  98.4537 239.0136 0032880 201.7854 158.1944 14.52862764967557
SAUDICOMSAT 2           
1 28370U 04025E   22276.84268900  .00000631  00000+0  17987-3 0  9991
2 28370  98.5454 238.5082 0058382  34.3919 326.1030 14.47754039964312
APRIZESAT 1             
1 28372U 04025G   22277.43736290  .00000524  00000+0  14640-3 0  9995
2 28372  98.5066 239.2320 0045217 305.0594  54.6362 14.49853446965941
NANOSAT-1               
1 28493U 04049B   22277.18599279  .00001332  00000+0  20980-3 0  9993
2 28493  98.1163  18.0739 0003500 317.8805  42.2134 14.74127610955899
SAUDICOMSAT 7           
1 31119U 07012C   22277.36883556  .00000903  00000+0  18443-3 0  9993
2 31119  98.1935 222.2515 0060940 109.6079 251.1714 14.62177592824674
SAUDICOMSAT 6           
1 31121U 07012E   22276.52863300  .00000637  00000+0  14103-3 0  9991
2 31121  98.2333 216.6945 0075290 215.7624 143.8521 14.58959776822772
SAUDICOMSAT 5           
1 31124U 07012H   22277.10220943  .00001078  00000+0  21144-3 0  9992
2 31124  98.1628 223.4761 0052486  57.0900 303.5336 14.63910563825554
SAUDICOMSAT 3           
1 31125U 07012J   22277.43511067  .00001396  00000+0  26182-3 0  9999
2 31125  98.1289 225.1757 0043069   2.5173 357.6239 14.65752334826540
SAUDICOMSAT 4           
1 31127U 07012L   22277.41559291  .00000761  00000+0  16125-3 0  9991
2 31127  98.2160 220.7022 0068045 158.0594 202.3544 14.60688422823848
APRIZESAT 4             
1 35684U 09041D   22277.03887585  .00001041  00000+0  14366-3 0  9992
2 35684  98.3094 294.4015 0046834   5.0842 355.0834 14.79754208711172
APRIZESAT 3             
1 35686U 09041F   22277.50439733  .00002060  00000+0  22015-3 0  9996
2 35686  98.1042   6.5952 0071691 188.9528 171.0415 14.88095342714876
AISSAT 1                
1 36797U 10035C   22277.51526689  .00002610  00000+0  29534-3 0  9997
2 36797  98.2393 105.5113 0010991 169.3423 190.8027 14.87334525662780
S-NET D                 
1 43186U 18014G   22276.70193782  .00003507  00000+0  29965-3 0  9990
2 43186  97.6481 180.3338 0008956 302.2486  57.7868 14.98267488255121
S-NET B                 
1 43187U 18014H   22277.30328505  .00003654  00000+0  31200-3 0  9999
2 43187  97.6478 180.8697 0009008 299.9042  60.1286 14.98269568255213
S-NET A                 
1 43188U 18014J   22276.70252667  .00003413  00000+0  29177-3 0  9991
2 43188  97.6482 180.3505 0009007 302.4036  57.6314 14.98264672255128
S-NET C                 
1 43189U 18014K   22276.70342752  .00003296  00000+0  28200-3 0  9992
2 43189  97.6476 180.2689 0009061 302.2652  57.7692 14.98260764253672
SALSAT                  
1 46495U 20068K   22276.82379358  .00004590  00000+0  32762-3 0  9998
2 46495  97.7366 218.2221 0014273 270.8067  89.1524 15.04953991110482
